SL-14 R/B               
1 16792U 86046B   26037.15018360  .00000623  00000+0  69022-4 0  9994
2 16792  82.4819 109.9863 0022408 335.8305  24.1857 14.85559778121727
SL-14 R/B               
1 16882U 86055B   26036.82017721  .00000868  00000+0  97201-4 0  9998
2 16882  82.5231 156.6185 0020378  78.7159  36.7088 14.85609048114639
AJISAI (EGS)            
1 16908U 86061A   26037.23355934 -.00000099  00000+0 -14522-4 0  9994
2 16908  50.0068 190.0748 0011237 205.9990 216.1126 12.44515326464086
COSMOS 1812             
1 17295U 87003A   26037.29212198  .00298081  32581-4  82699-3 0  9992
2 17295  82.4777 231.1849 0000982 327.8174  32.3040 15.93740441139441
SL-14 R/B               
1 17567U 87024B   26036.72376500  .00000732  00000+0  80638-4 0  9994
2 17567  82.5295 122.8063 0018455  11.5172 348.6463 14.86101558 83386
COSMOS 1833             
1 17589U 87027A   26037.00499381  .00000075  00000+0  65745-4 0  9998
2 17589  70.9209  32.6085 0024857 256.8510 102.9837 14.13055888  5846
SL-16 R/B               
1 17590U 87027B   26037.28216595 -.00000101  00000+0 -26086-4 0  9991
2 17590  71.0050 342.6762 0005223 196.6499 163.4454 14.17163842 10895
SL-14 R/B               
1 17912U 87038B   26036.90435457  .00000746  00000+0  83876-4 0  9992
2 17912  82.5044 326.7428 0017679 270.0726  89.8464 14.85337310 74512
COSMOS 1844             
1 17973U 87041A   26036.57866822  .00000349  00000+0  20606-3 0  9990
2 17973  70.8981 101.9097 0028786  69.5429 290.8779 14.14538106999041
SL-14 R/B               
1 18153U 87055B   26036.95416735  .00000740  00000+0  82339-4 0  9999
2 18153  82.4992  18.9375 0022112 116.4959 243.8529 14.85589863 65225
COSMOS 1867             
1 18187U 87060A   26037.00351258 -.00000018  00000+0  30771-4 0  9999
2 18187  65.0107  35.4392 0014084 276.2768  83.6712 14.31497768 15404
SL-14 R/B               
1 18749U 88001B   26037.01465673  .00000631  00000+0  70213-4 0  9992
2 18749  82.5105 225.1536 0017721 347.9731  12.1060 14.85489967 37324
