CCSDS_OMM_VERS = 2.0
CREATION_DATE  = 
ORIGINATOR     = 

OBJECT_NAME    = SL-14 R/B
OBJECT_ID      = 1986-046B
CENTER_NAME    = EARTH
REF_FRAME      = TEME
TIME_SYSTEM    = UTC
MEAN_ELEMENT_THEORY = SGP/SGP4

EPOCH          = 2026-02-06T03:36:15.863040
MEAN_MOTION    = 14.85559778
ECCENTRICITY   = .00224082
INCLINATION    = 82.4819
RA_OF_ASC_NODE = 109.9863
ARG_OF_PERICENTER = 335.8305
MEAN_ANOMALY   = 24.1857

EPHEMERIS_TYPE = 0
CLASSIFICATION_TYPE = U
NORAD_CAT_ID   = 16792
ELEMENT_SET_NO = 999
REV_AT_EPOCH   = 12172
BSTAR          = .69021853E-4
MEAN_MOTION_DOT = .623E-5
MEAN_MOTION_DDOT = 0

CCSDS_OMM_VERS = 2.0
CREATION_DATE  = 
ORIGINATOR     = 

OBJECT_NAME    = SL-14 R/B
OBJECT_ID      = 1986-055B
CENTER_NAME    = EARTH
REF_FRAME      = TEME
TIME_SYSTEM    = UTC
MEAN_ELEMENT_THEORY = SGP/SGP4

EPOCH          = 2026-02-05T19:41:03.310944
MEAN_MOTION    = 14.85609048
ECCENTRICITY   = .00203781
INCLINATION    = 82.5231
RA_OF_ASC_NODE = 156.6185
ARG_OF_PERICENTER = 78.7159
MEAN_ANOMALY   = 36.7088

EPHEMERIS_TYPE = 0
CLASSIFICATION_TYPE = U
NORAD_CAT_ID   = 16882
ELEMENT_SET_NO = 999
REV_AT_EPOCH   = 11463
BSTAR          = .9720125E-4
MEAN_MOTION_DOT = .868E-5
MEAN_MOTION_DDOT = 0

CCSDS_OMM_VERS = 2.0
CREATION_DATE  = 
ORIGINATOR     = 

OBJECT_NAME    = AJISAI (EGS)
OBJECT_ID      = 1986-061A
CENTER_NAME    = EARTH
REF_FRAME      = TEME
TIME_SYSTEM    = UTC
MEAN_ELEMENT_THEORY = SGP/SGP4

EPOCH          = 2026-02-06T05:36:19.526976
MEAN_MOTION    = 12.44515326
ECCENTRICITY   = .00112371
INCLINATION    = 50.0068
RA_OF_ASC_NODE = 190.0748
ARG_OF_PERICENTER = 205.9990
MEAN_ANOMALY   = 216.1126

EPHEMERIS_TYPE = 0
CLASSIFICATION_TYPE = U
NORAD_CAT_ID   = 16908
ELEMENT_SET_NO = 999
REV_AT_EPOCH   = 46408
BSTAR          = -.14521887E-4
MEAN_MOTION_DOT = -.99E-6
MEAN_MOTION_DDOT = 0

CCSDS_OMM_VERS = 2.0
CREATION_DATE  = 
ORIGINATOR     = 

OBJECT_NAME    = COSMOS 1812
OBJECT_ID      = 1987-003A
CENTER_NAME    = EARTH
REF_FRAME      = TEME
TIME_SYSTEM    = UTC
MEAN_ELEMENT_THEORY = SGP/SGP4

EPOCH          = 2026-02-06T07:00:39.339072
MEAN_MOTION    = 15.93740441
ECCENTRICITY   = .00009827
INCLINATION    = 82.4777
RA_OF_ASC_NODE = 231.1849
ARG_OF_PERICENTER = 327.8174
MEAN_ANOMALY   = 32.3040

EPHEMERIS_TYPE = 0
CLASSIFICATION_TYPE = U
NORAD_CAT_ID   = 17295
ELEMENT_SET_NO = 999
REV_AT_EPOCH   = 13944
BSTAR          = .82698958E-3
MEAN_MOTION_DOT = .298081E-2
MEAN_MOTION_DDOT = .32580825E-4

CCSDS_OMM_VERS = 2.0
CREATION_DATE  = 
ORIGINATOR     = 

OBJECT_NAME    = SL-14 R/B
OBJECT_ID      = 1987-024B
CENTER_NAME    = EARTH
REF_FRAME      = TEME
TIME_SYSTEM    = UTC
MEAN_ELEMENT_THEORY = SGP/SGP4

EPOCH          = 2026-02-05T17:22:13.296000
MEAN_MOTION    = 14.86101558
ECCENTRICITY   = .0018455
INCLINATION    = 82.5295
RA_OF_ASC_NODE = 122.8063
ARG_OF_PERICENTER = 11.5172
MEAN_ANOMALY   = 348.6463

EPHEMERIS_TYPE = 0
CLASSIFICATION_TYPE = U
NORAD_CAT_ID   = 17567
ELEMENT_SET_NO = 999
REV_AT_EPOCH   = 8338
BSTAR          = .80638E-4
MEAN_MOTION_DOT = .732E-5
MEAN_MOTION_DDOT = 0

CCSDS_OMM_VERS = 2.0
CREATION_DATE  = 
ORIGINATOR     = 

OBJECT_NAME    = COSMOS 1833
OBJECT_ID      = 1987-027A
CENTER_NAME    = EARTH
REF_FRAME      = TEME
TIME_SYSTEM    = UTC
MEAN_ELEMENT_THEORY = SGP/SGP4

EPOCH          = 2026-02-06T00:07:11.465184
MEAN_MOTION    = 14.13055888
ECCENTRICITY   = .0024857
INCLINATION    = 70.9209
RA_OF_ASC_NODE = 32.6085
ARG_OF_PERICENTER = 256.8510
MEAN_ANOMALY   = 102.9837

EPHEMERIS_TYPE = 0
CLASSIFICATION_TYPE = U
NORAD_CAT_ID   = 17589
ELEMENT_SET_NO = 999
REV_AT_EPOCH   = 584
BSTAR          = .65745144E-4
MEAN_MOTION_DOT = .75E-6
MEAN_MOTION_DDOT = 0

CCSDS_OMM_VERS = 2.0
CREATION_DATE  = 
ORIGINATOR     = 

OBJECT_NAME    = SL-16 R/B
OBJECT_ID      = 1987-027B
CENTER_NAME    = EARTH
REF_FRAME      = TEME
TIME_SYSTEM    = UTC
MEAN_ELEMENT_THEORY = SGP/SGP4

EPOCH          = 2026-02-06T06:46:19.138080
MEAN_MOTION    = 14.17163842
ECCENTRICITY   = .00052234
INCLINATION    = 71.0050
RA_OF_ASC_NODE = 342.6762
ARG_OF_PERICENTER = 196.6499
MEAN_ANOMALY   = 163.4454

EPHEMERIS_TYPE = 0
CLASSIFICATION_TYPE = U
NORAD_CAT_ID   = 17590
ELEMENT_SET_NO = 999
REV_AT_EPOCH   = 1089
BSTAR          = -.26086338E-4
MEAN_MOTION_DOT = -.101E-5
MEAN_MOTION_DDOT = 0

CCSDS_OMM_VERS = 2.0
CREATION_DATE  = 
ORIGINATOR     = 

OBJECT_NAME    = SL-14 R/B
OBJECT_ID      = 1987-038B
CENTER_NAME    = EARTH
REF_FRAME      = TEME
TIME_SYSTEM    = UTC
MEAN_ELEMENT_THEORY = SGP/SGP4

EPOCH          = 2026-02-05T21:42:16.234848
MEAN_MOTION    = 14.85337310
ECCENTRICITY   = .0017679
INCLINATION    = 82.5044
RA_OF_ASC_NODE = 326.7428
ARG_OF_PERICENTER = 270.0726
MEAN_ANOMALY   = 89.8464

EPHEMERIS_TYPE = 0
CLASSIFICATION_TYPE = U
NORAD_CAT_ID   = 17912
ELEMENT_SET_NO = 999
REV_AT_EPOCH   = 7451
BSTAR          = .83876E-4
MEAN_MOTION_DOT = .746E-5
MEAN_MOTION_DDOT = 0

CCSDS_OMM_VERS = 2.0
CREATION_DATE  = 
ORIGINATOR     = 

OBJECT_NAME    = COSMOS 1844
OBJECT_ID      = 1987-041A
CENTER_NAME    = EARTH
REF_FRAME      = TEME
TIME_SYSTEM    = UTC
MEAN_ELEMENT_THEORY = SGP/SGP4

EPOCH          = 2026-02-05T13:53:16.934208
MEAN_MOTION    = 14.14538106
ECCENTRICITY   = .0028786
INCLINATION    = 70.8981
RA_OF_ASC_NODE = 101.9097
ARG_OF_PERICENTER = 69.5429
MEAN_ANOMALY   = 290.8779

EPHEMERIS_TYPE = 0
CLASSIFICATION_TYPE = U
NORAD_CAT_ID   = 17973
ELEMENT_SET_NO = 999
REV_AT_EPOCH   = 99904
BSTAR          = .20606E-3
MEAN_MOTION_DOT = .349E-5
MEAN_MOTION_DDOT = 0

CCSDS_OMM_VERS = 2.0
CREATION_DATE  = 
ORIGINATOR     = 

OBJECT_NAME    = SL-14 R/B
OBJECT_ID      = 1987-055B
CENTER_NAME    = EARTH
REF_FRAME      = TEME
TIME_SYSTEM    = UTC
MEAN_ELEMENT_THEORY = SGP/SGP4

EPOCH          = 2026-02-05T22:54:00.059040
MEAN_MOTION    = 14.85589863
ECCENTRICITY   = .0022112
INCLINATION    = 82.4992
RA_OF_ASC_NODE = 18.9375
ARG_OF_PERICENTER = 116.4959
MEAN_ANOMALY   = 243.8529

EPHEMERIS_TYPE = 0
CLASSIFICATION_TYPE = U
NORAD_CAT_ID   = 18153
ELEMENT_SET_NO = 999
REV_AT_EPOCH   = 6522
BSTAR          = .82339E-4
MEAN_MOTION_DOT = .74E-5
MEAN_MOTION_DDOT = 0

CCSDS_OMM_VERS = 2.0
CREATION_DATE  = 
ORIGINATOR     = 

OBJECT_NAME    = COSMOS 1867
OBJECT_ID      = 1987-060A
CENTER_NAME    = EARTH
REF_FRAME      = TEME
TIME_SYSTEM    = UTC
MEAN_ELEMENT_THEORY = SGP/SGP4

EPOCH          = 2026-02-06T00:05:03.486912
MEAN_MOTION    = 14.31497768
ECCENTRICITY   = .00140844
INCLINATION    = 65.0107
RA_OF_ASC_NODE = 35.4392
ARG_OF_PERICENTER = 276.2768
MEAN_ANOMALY   = 83.6712

EPHEMERIS_TYPE = 0
CLASSIFICATION_TYPE = U
NORAD_CAT_ID   = 18187
ELEMENT_SET_NO = 999
REV_AT_EPOCH   = 1540
BSTAR          = .30771277E-4
MEAN_MOTION_DOT = -.18E-6
MEAN_MOTION_DDOT = 0

CCSDS_OMM_VERS = 2.0
CREATION_DATE  = 
ORIGINATOR     = 

OBJECT_NAME    = SL-14 R/B
OBJECT_ID      = 1988-001B
CENTER_NAME    = EARTH
REF_FRAME      = TEME
TIME_SYSTEM    = UTC
MEAN_ELEMENT_THEORY = SGP/SGP4

EPOCH          = 2026-02-06T00:21:06.341472
MEAN_MOTION    = 14.85489967
ECCENTRICITY   = .00177218
INCLINATION    = 82.5105
RA_OF_ASC_NODE = 225.1536
ARG_OF_PERICENTER = 347.9731
MEAN_ANOMALY   = 12.1060

EPHEMERIS_TYPE = 0
CLASSIFICATION_TYPE = U
NORAD_CAT_ID   = 18749
ELEMENT_SET_NO = 999
REV_AT_EPOCH   = 3732
BSTAR          = .70213363E-4
MEAN_MOTION_DOT = .631E-5
MEAN_MOTION_DDOT = 0

